STARLINK-2653
1 18665C 21044AD  21326.16676612  .00000874  00000-0  58571-4 0  3262
2 18665  53.0554 312.9847 0001580  68.6422  21.1437 15.06406938    10
